[{"OBJECT_NAME":"STARLINK-31504","OBJECT_ID":"2024-056H","EPOCH":"2026-03-09T10:22:15.882528","MEAN_MOTION":15.27566705,"ECCENTRICITY":0.00012247,"INCLINATION":43.0012,"RA_OF_ASC_NODE":232.2747,"ARG_OF_PERICENTER":274.4841,"MEAN_ANOMALY":85.5871,"EPHEMERIS_TYPE":0,"CLASSIFICATION_TYPE":"U","NORAD_CAT_ID":59303,"ELEMENT_SET_NO":999,"REV_AT_EPOCH":11111,"BSTAR":1.9371967e-5,"MEAN_MOTION_DOT":2.71e-6,"MEAN_MOTION_DDOT":0},{"OBJECT_NAME":"AUREOLE 3","OBJECT_ID":"1981-094A","EPOCH":"2026-03-09T22:56:08.699136","MEAN_MOTION":14.57338362,"ECCENTRICITY":0.04661674,"INCLINATION":82.4728,"RA_OF_ASC_NODE":18.4217,"ARG_OF_PERICENTER":152.6496,"MEAN_ANOMALY":210.011,"EPHEMERIS_TYPE":0,"CLASSIFICATION_TYPE":"U","NORAD_CAT_ID":12848,"ELEMENT_SET_NO":999,"REV_AT_EPOCH":24579,"BSTAR":0.00036802008,"MEAN_MOTION_DOT":8.02e-5,"MEAN_MOTION_DDOT":0}]
